CCSDS_OMM_VERS = 2.0
CREATION_DATE  = 
ORIGINATOR     = 

OBJECT_NAME    = STARLINK-36719
OBJECT_ID      = 2026-022A
CENTER_NAME    = EARTH
REF_FRAME      = TEME
TIME_SYSTEM    = UTC
MEAN_ELEMENT_THEORY = SGP/SGP4

EPOCH          = 2026-02-24T12:17:57.057216
MEAN_MOTION    = 15.75247168
ECCENTRICITY   = .0002125
INCLINATION    = 97.2842
RA_OF_ASC_NODE = 88.8265
ARG_OF_PERICENTER = 165.1423
MEAN_ANOMALY   = 194.9905

EPHEMERIS_TYPE = 0
CLASSIFICATION_TYPE = U
NORAD_CAT_ID   = 67648
ELEMENT_SET_NO = 999
REV_AT_EPOCH   = 347
BSTAR          = .10767E-2
MEAN_MOTION_DOT = .164002E-2
MEAN_MOTION_DDOT = 0

CCSDS_OMM_VERS = 2.0
CREATION_DATE  = 
ORIGINATOR     = 

OBJECT_NAME    = STARLINK-36342
OBJECT_ID      = 2026-022B
CENTER_NAME    = EARTH
REF_FRAME      = TEME
TIME_SYSTEM    = UTC
MEAN_ELEMENT_THEORY = SGP/SGP4

EPOCH          = 2026-02-24T12:16:56.642880
MEAN_MOTION    = 15.75292547
ECCENTRICITY   = .0001191
INCLINATION    = 97.2842
RA_OF_ASC_NODE = 88.8271
ARG_OF_PERICENTER = 30.4208
MEAN_ANOMALY   = 329.7126

EPHEMERIS_TYPE = 0
CLASSIFICATION_TYPE = U
NORAD_CAT_ID   = 67649
ELEMENT_SET_NO = 999
REV_AT_EPOCH   = 347
BSTAR          = .1887E-2
MEAN_MOTION_DOT = .292479E-2
MEAN_MOTION_DDOT = 0

CCSDS_OMM_VERS = 2.0
CREATION_DATE  = 
ORIGINATOR     = 

OBJECT_NAME    = STARLINK-36703
OBJECT_ID      = 2026-022C
CENTER_NAME    = EARTH
REF_FRAME      = TEME
TIME_SYSTEM    = UTC
MEAN_ELEMENT_THEORY = SGP/SGP4

EPOCH          = 2026-02-24T12:15:25.220448
MEAN_MOTION    = 15.75306809
ECCENTRICITY   = .0002341
INCLINATION    = 97.2842
RA_OF_ASC_NODE = 88.8285
ARG_OF_PERICENTER = 31.2634
MEAN_ANOMALY   = 328.8770

EPHEMERIS_TYPE = 0
CLASSIFICATION_TYPE = U
NORAD_CAT_ID   = 67650
ELEMENT_SET_NO = 999
REV_AT_EPOCH   = 347
BSTAR          = .13896E-2
MEAN_MOTION_DOT = .213489E-2
MEAN_MOTION_DDOT = 0

CCSDS_OMM_VERS = 2.0
CREATION_DATE  = 
ORIGINATOR     = 

OBJECT_NAME    = STARLINK-36696
OBJECT_ID      = 2026-022D
CENTER_NAME    = EARTH
REF_FRAME      = TEME
TIME_SYSTEM    = UTC
MEAN_ELEMENT_THEORY = SGP/SGP4

EPOCH          = 2026-02-24T12:12:52.435008
MEAN_MOTION    = 15.75261466
ECCENTRICITY   = .0001622
INCLINATION    = 97.2843
RA_OF_ASC_NODE = 88.8308
ARG_OF_PERICENTER = 3.0678
MEAN_ANOMALY   = 357.0597

EPHEMERIS_TYPE = 0
CLASSIFICATION_TYPE = U
NORAD_CAT_ID   = 67651
ELEMENT_SET_NO = 999
REV_AT_EPOCH   = 347
BSTAR          = .13918E-2
MEAN_MOTION_DOT = .213395E-2
MEAN_MOTION_DDOT = 0

CCSDS_OMM_VERS = 2.0
CREATION_DATE  = 
ORIGINATOR     = 

OBJECT_NAME    = STARLINK-36699
OBJECT_ID      = 2026-022E
CENTER_NAME    = EARTH
REF_FRAME      = TEME
TIME_SYSTEM    = UTC
MEAN_ELEMENT_THEORY = SGP/SGP4

EPOCH          = 2026-02-24T12:11:51.040032
MEAN_MOTION    = 15.75213427
ECCENTRICITY   = .0001851
INCLINATION    = 97.2840
RA_OF_ASC_NODE = 88.8318
ARG_OF_PERICENTER = 347.2424
MEAN_ANOMALY   = 12.8794

EPHEMERIS_TYPE = 0
CLASSIFICATION_TYPE = U
NORAD_CAT_ID   = 67652
ELEMENT_SET_NO = 999
REV_AT_EPOCH   = 347
BSTAR          = .17682E-2
MEAN_MOTION_DOT = .272469E-2
MEAN_MOTION_DDOT = 0

CCSDS_OMM_VERS = 2.0
CREATION_DATE  = 
ORIGINATOR     = 

OBJECT_NAME    = STARLINK-36694
OBJECT_ID      = 2026-022F
CENTER_NAME    = EARTH
REF_FRAME      = TEME
TIME_SYSTEM    = UTC
MEAN_ELEMENT_THEORY = SGP/SGP4

EPOCH          = 2026-02-24T07:34:22.308672
MEAN_MOTION    = 15.75283828
ECCENTRICITY   = .000148
INCLINATION    = 97.2836
RA_OF_ASC_NODE = 88.6348
ARG_OF_PERICENTER = 36.4770
MEAN_ANOMALY   = 323.6596

EPHEMERIS_TYPE = 0
CLASSIFICATION_TYPE = U
NORAD_CAT_ID   = 67653
ELEMENT_SET_NO = 999
REV_AT_EPOCH   = 344
BSTAR          = .19756E-2
MEAN_MOTION_DOT = .306615E-2
MEAN_MOTION_DDOT = 0

CCSDS_OMM_VERS = 2.0
CREATION_DATE  = 
ORIGINATOR     = 

OBJECT_NAME    = STARLINK-36620
OBJECT_ID      = 2026-022G
CENTER_NAME    = EARTH
REF_FRAME      = TEME
TIME_SYSTEM    = UTC
MEAN_ELEMENT_THEORY = SGP/SGP4

EPOCH          = 2026-02-24T07:33:51.677280
MEAN_MOTION    = 15.75269986
ECCENTRICITY   = .0001121
INCLINATION    = 97.2843
RA_OF_ASC_NODE = 88.6349
ARG_OF_PERICENTER = 106.4968
MEAN_ANOMALY   = 253.6420

EPHEMERIS_TYPE = 0
CLASSIFICATION_TYPE = U
NORAD_CAT_ID   = 67654
ELEMENT_SET_NO = 999
REV_AT_EPOCH   = 344
BSTAR          = .16148E-2
MEAN_MOTION_DOT = .248737E-2
MEAN_MOTION_DDOT = 0

CCSDS_OMM_VERS = 2.0
CREATION_DATE  = 
ORIGINATOR     = 

OBJECT_NAME    = STARLINK-36720
OBJECT_ID      = 2026-022H
CENTER_NAME    = EARTH
REF_FRAME      = TEME
TIME_SYSTEM    = UTC
MEAN_ELEMENT_THEORY = SGP/SGP4

EPOCH          = 2026-02-24T10:34:17.052960
MEAN_MOTION    = 15.75228099
ECCENTRICITY   = .0001115
INCLINATION    = 97.2841
RA_OF_ASC_NODE = 88.7708
ARG_OF_PERICENTER = 81.7968
MEAN_ANOMALY   = 278.3423

EPHEMERIS_TYPE = 0
CLASSIFICATION_TYPE = U
NORAD_CAT_ID   = 67655
ELEMENT_SET_NO = 999
REV_AT_EPOCH   = 346
BSTAR          = .1117E-2
MEAN_MOTION_DOT = .17012E-2
MEAN_MOTION_DDOT = 0

CCSDS_OMM_VERS = 2.0
CREATION_DATE  = 
ORIGINATOR     = 

OBJECT_NAME    = STARLINK-36688
OBJECT_ID      = 2026-022J
CENTER_NAME    = EARTH
REF_FRAME      = TEME
TIME_SYSTEM    = UTC
MEAN_ELEMENT_THEORY = SGP/SGP4

EPOCH          = 2026-02-24T07:30:18.714240
MEAN_MOTION    = 15.75263710
ECCENTRICITY   = .0001973
INCLINATION    = 97.2838
RA_OF_ASC_NODE = 88.6376
ARG_OF_PERICENTER = 352.1157
MEAN_ANOMALY   = 8.0076

EPHEMERIS_TYPE = 0
CLASSIFICATION_TYPE = U
NORAD_CAT_ID   = 67656
ELEMENT_SET_NO = 999
REV_AT_EPOCH   = 344
BSTAR          = .17451E-2
MEAN_MOTION_DOT = .269409E-2
MEAN_MOTION_DDOT = 0

CCSDS_OMM_VERS = 2.0
CREATION_DATE  = 
ORIGINATOR     = 

OBJECT_NAME    = STARLINK-36706
OBJECT_ID      = 2026-022K
CENTER_NAME    = EARTH
REF_FRAME      = TEME
TIME_SYSTEM    = UTC
MEAN_ELEMENT_THEORY = SGP/SGP4

EPOCH          = 2026-02-24T07:28:16.378752
MEAN_MOTION    = 15.75284154
ECCENTRICITY   = .0001136
INCLINATION    = 97.2837
RA_OF_ASC_NODE = 88.6388
ARG_OF_PERICENTER = 116.3005
MEAN_ANOMALY   = 243.8377

EPHEMERIS_TYPE = 0
CLASSIFICATION_TYPE = U
NORAD_CAT_ID   = 67657
ELEMENT_SET_NO = 999
REV_AT_EPOCH   = 344
BSTAR          = .17525E-2
MEAN_MOTION_DOT = .270825E-2
MEAN_MOTION_DDOT = 0

CCSDS_OMM_VERS = 2.0
CREATION_DATE  = 
ORIGINATOR     = 

OBJECT_NAME    = STARLINK-36701
OBJECT_ID      = 2026-022L
CENTER_NAME    = EARTH
REF_FRAME      = TEME
TIME_SYSTEM    = UTC
MEAN_ELEMENT_THEORY = SGP/SGP4

EPOCH          = 2026-02-24T07:26:45.326112
MEAN_MOTION    = 15.75238324
ECCENTRICITY   = .000311
INCLINATION    = 97.2840
RA_OF_ASC_NODE = 88.6412
ARG_OF_PERICENTER = 342.4366
MEAN_ANOMALY   = 17.6792

EPHEMERIS_TYPE = 0
CLASSIFICATION_TYPE = U
NORAD_CAT_ID   = 67658
ELEMENT_SET_NO = 999
REV_AT_EPOCH   = 344
BSTAR          = .12208E-2
MEAN_MOTION_DOT = .186411E-2
MEAN_MOTION_DDOT = 0

CCSDS_OMM_VERS = 2.0
CREATION_DATE  = 
ORIGINATOR     = 

OBJECT_NAME    = STARLINK-36642
OBJECT_ID      = 2026-022M
CENTER_NAME    = EARTH
REF_FRAME      = TEME
TIME_SYSTEM    = UTC
MEAN_ELEMENT_THEORY = SGP/SGP4

EPOCH          = 2026-02-24T07:25:13.903680
MEAN_MOTION    = 15.75236972
ECCENTRICITY   = .0003344
INCLINATION    = 97.2838
RA_OF_ASC_NODE = 88.6430
ARG_OF_PERICENTER = 341.9986
MEAN_ANOMALY   = 18.1160

EPHEMERIS_TYPE = 0
CLASSIFICATION_TYPE = U
NORAD_CAT_ID   = 67659
ELEMENT_SET_NO = 999
REV_AT_EPOCH   = 344
BSTAR          = .12665E-2
MEAN_MOTION_DOT = .193539E-2
MEAN_MOTION_DDOT = 0

