STARLINK-36719          
1 67648U 26022A   26055.51246594  .00164002  00000+0  10767-2 0  9992
2 67648  97.2842  88.8265 0002125 165.1423 194.9905 15.75247168  3471
STARLINK-36342          
1 67649U 26022B   26055.51176670  .00292479  00000+0  18870-2 0  9993
2 67649  97.2842  88.8271 0001191  30.4208 329.7126 15.75292547  3470
STARLINK-36703          
1 67650U 26022C   26055.51070857  .00213489  00000+0  13896-2 0  9992
2 67650  97.2842  88.8285 0002341  31.2634 328.8770 15.75306809  3479
STARLINK-36696          
1 67651U 26022D   26055.50894022  .00213395  00000+0  13918-2 0  9991
2 67651  97.2843  88.8308 0001622   3.0678 357.0597 15.75261466  3473
STARLINK-36699          
1 67652U 26022E   26055.50822963  .00272469  00000+0  17682-2 0  9996
2 67652  97.2840  88.8318 0001851 347.2424  12.8794 15.75213427  3477
STARLINK-36694          
1 67653U 26022F   26055.31553598  .00306615  00000+0  19756-2 0  9996
2 67653  97.2836  88.6348 0001480  36.4770 323.6596 15.75283828  3445
STARLINK-36620          
1 67654U 26022G   26055.31518145  .00248737  00000+0  16148-2 0  9998
2 67654  97.2843  88.6349 0001121 106.4968 253.6420 15.75269986  3441
STARLINK-36720          
1 67655U 26022H   26055.44047515  .00170120  00000+0  11170-2 0  9991
2 67655  97.2841  88.7708 0001115  81.7968 278.3423 15.75228099  3467
STARLINK-36688          
1 67656U 26022J   26055.31271660  .00269409  00000+0  17451-2 0  9995
2 67656  97.2838  88.6376 0001973 352.1157   8.0076 15.75263710  3440
STARLINK-36706          
1 67657U 26022K   26055.31130068  .00270825  00000+0  17525-2 0  9998
2 67657  97.2837  88.6388 0001136 116.3005 243.8377 15.75284154  3444
STARLINK-36701          
1 67658U 26022L   26055.31024683  .00186411  00000+0  12208-2 0  9994
2 67658  97.2840  88.6412 0003110 342.4366  17.6792 15.75238324  3449
STARLINK-36642          
1 67659U 26022M   26055.30918870  .00193539  00000+0  12665-2 0  9990
2 67659  97.2838  88.6430 0003344 341.9986  18.1160 15.75236972  3440
